[{"OBJECT_NAME":"STARLINK-6064","OBJECT_ID":"2023-078AQ","EPOCH":"2026-03-09T22:48:04.955904","MEAN_MOTION":14.98321595,"ECCENTRICITY":0.00027596,"INCLINATION":70.0007,"RA_OF_ASC_NODE":323.7545,"ARG_OF_PERICENTER":270.2272,"MEAN_ANOMALY":89.8571,"EPHEMERIS_TYPE":0,"CLASSIFICATION_TYPE":"U","NORAD_CAT_ID":56805,"ELEMENT_SET_NO":999,"REV_AT_EPOCH":15321,"BSTAR":-1.0399114e-5,"MEAN_MOTION_DOT":-2.17e-6,"MEAN_MOTION_DDOT":0},{"OBJECT_NAME":"SKYCRAFT-4B","OBJECT_ID":"2025-154D","EPOCH":"2026-03-09T23:31:04.324224","MEAN_MOTION":14.96290027,"ECCENTRICITY":0.00045249,"INCLINATION":97.6762,"RA_OF_ASC_NODE":135.4663,"ARG_OF_PERICENTER":218.6003,"MEAN_ANOMALY":141.4895,"EPHEMERIS_TYPE":0,"CLASSIFICATION_TYPE":"U","NORAD_CAT_ID":64872,"ELEMENT_SET_NO":999,"REV_AT_EPOCH":3420,"BSTAR":0.00083632264,"MEAN_MOTION_DOT":9.402e-5,"MEAN_MOTION_DDOT":0}]
